GLOBALSTAR M094         
1 39074U 13005C   25027.62513335 -.00000055  00000+0  27138-3 0  9990
2 39074  51.9940 250.0893 0000859  57.3471 302.7478 12.62267844554646
GLOBALSTAR M096         
1 39075U 13005D   25027.87592069 -.00000061  00000+0  23695-3 0  9990
2 39075  52.0085 297.7316 0000605  38.2152 321.8758 12.62267468553576
GLOBALSTAR M078         
1 39076U 13005E   25027.37377289 -.00000101  00000+0  17026-4 0  9998
2 39076  51.9889  23.9536 0000757 211.6070 148.4751 12.62269452552136
GLOBALSTAR M095         
1 39077U 13005F   25028.03408082 -.00000098  00000+0  31379-4 0  9991
2 39077  51.9818  19.2122 0000303 263.4104  96.6728 12.62265734552438
GLOBALSTAR M087         
1 52888U 22064A   25027.51053664 -.00000112  00000+0 -47251-4 0  9999
2 52888  51.9778 162.2142 0000789 108.5054 251.5898 12.62233255127273
